0 IRIDIUM 33 DEB
1 38033U 97051YV  13283.44992777  .00009754  00000-0  23180-2 0  2753
2 38033 086.2882 095.7733 0037346 322.3577 065.4138 14.53379701599829
0 IRIDIUM 33 DEB
1 38033U 97051YV  13285.44686506  .00007980  00000-0  18952-2 0  2766
2 38033 086.2883 094.8860 0037015 315.7948 073.6692 14.53406064600116
0 IRIDIUM 33 DEB
1 38033U 97051YV  13287.44344971  .00009168  00000-0  21746-2 0  2771
2 38033 086.2855 093.9974 0038661 308.0229 081.4834 14.53433803600404
0 IRIDIUM 33 DEB
1 38033U 97051YV  13291.43638325  .00011152  00000-0  26430-2 0  2786
2 38033 086.2958 092.2333 0037285 294.4566 094.7452 14.53514294600982
0 IRIDIUM 33 DEB
1 38033U 97051YV  13292.90561806  .00010414  00000-0  24667-2 0  2799
2 38033 086.2906 091.5750 0037015 289.5129 222.8384 14.53543008601200
0 IRIDIUM 33 DEB
1 38033U 97051YV  13294.90200171  .00015179  00000-0  35924-2 0  2809
2 38033 086.2893 090.6876 0036895 282.5501 229.8376 14.53582307601490
